[
    {
        "Altitude(m)": 706789.0256708076,
        "Argument of Periapsis(deg)": 0.007973084830638947,
        "Eccentricity": 0.0,
        "Inclination(deg)": 45.0,
        "Latitude(deg)": 42.84540096672155,
        "Longitude(deg)": -83.2376496043795,
        "Mean Anomaly(deg)": -286.4722483467634,
        "RAAN(deg)": 309.99247364097926,
        "Satellite Name": "Constellation 1 1368",
        "Satellite Number": 1368,
        "Semi-Major Axis(m)": 7083131.272910544,
        "Time(s)": 133
    },
    {
        "Altitude(m)": 706792.7149313382,
        "Argument of Periapsis(deg)": 0.008033032836884352,
        "Eccentricity": 0.0,
        "Inclination(deg)": 45.0,
        "Latitude(deg)": 42.861981761471604,
        "Longitude(deg)": -83.16225045300949,
        "Mean Anomaly(deg)": -286.41154720651355,
        "RAAN(deg)": 309.9924170518137,
        "Satellite Name": "Constellation 1 1368",
        "Satellite Number": 1368,
        "Semi-Major Axis(m)": 7083131.272910544,
        "Time(s)": 134
    },
    {
        "Altitude(m)": 706796.3925852517,
        "Argument of Periapsis(deg)": 0.008092980843129758,
        "Eccentricity": 0.0,
        "Inclination(deg)": 45.0,
        "Latitude(deg)": 42.87850728829233,
        "Longitude(deg)": -83.08680884044622,
        "Mean Anomaly(deg)": -286.35084606626367,
        "RAAN(deg)": 309.99236046264815,
        "Satellite Name": "Constellation 1 1368",
        "Satellite Number": 1368,
        "Semi-Major Axis(m)": 7083131.272910544,
        "Time(s)": 135
    },
    {
        "Altitude(m)": 706800.0586107663,
        "Argument of Periapsis(deg)": 0.008152928849375162,
        "Eccentricity": 0.0,
        "Inclination(deg)": 45.0,
        "Latitude(deg)": 42.894977486336856,
        "Longitude(deg)": -83.0113248613823,
        "Mean Anomaly(deg)": -286.29014492601374,
        "RAAN(deg)": 309.99230387348257,
        "Satellite Name": "Constellation 1 1368",
        "Satellite Number": 1368,
        "Semi-Major Axis(m)": 7083131.272910544,
        "Time(s)": 136
    },
    {
        "Altitude(m)": 706803.7129861704,
        "Argument of Periapsis(deg)": 0.008212876855620568,
        "Eccentricity": 0.0,
        "Inclination(deg)": 45.0,
        "Latitude(deg)": 42.91139229487933,
        "Longitude(deg)": -82.93579861107571,
        "Mean Anomaly(deg)": -286.2294437857638,
        "RAAN(deg)": 309.992247284317,
        "Satellite Name": "Constellation 1 1368",
        "Satellite Number": 1368,
        "Semi-Major Axis(m)": 7083131.272910544,
        "Time(s)": 137
    },
    {
        "Altitude(m)": 706807.3556898221,
        "Argument of Periapsis(deg)": 0.008272824861865974,
        "Eccentricity": 0.0,
        "Inclination(deg)": 45.0,
        "Latitude(deg)": 42.927751653315774,
        "Longitude(deg)": -82.86023018535043,
        "Mean Anomaly(deg)": -286.168742645514,
        "RAAN(deg)": 309.9921906951514,
        "Satellite Name": "Constellation 1 1368",
        "Satellite Number": 1368,
        "Semi-Major Axis(m)": 7083131.272910544,
        "Time(s)": 138
    },
    {
        "Altitude(m)": 706810.9867001545,
        "Argument of Periapsis(deg)": 0.00833277286811138,
        "Eccentricity": 0.0,
        "Inclination(deg)": 45.0,
        "Latitude(deg)": 42.944055501165195,
        "Longitude(deg)": -82.7846196805957,
        "Mean Anomaly(deg)": -286.108041505264,
        "RAAN(deg)": 309.9921341059858,
        "Satellite Name": "Constellation 1 1368",
        "Satellite Number": 1368,
        "Semi-Major Axis(m)": 7083131.272910544,
        "Time(s)": 139
    },
    {
        "Altitude(m)": 706814.605995675,
        "Argument of Periapsis(deg)": 0.008392720874356788,
        "Eccentricity": 0.0,
        "Inclination(deg)": 45.0,
        "Latitude(deg)": 42.96030377807028,
        "Longitude(deg)": -82.70896719376653,
        "Mean Anomaly(deg)": -286.0473403650141,
        "RAAN(deg)": 309.9920775168203,
        "Satellite Name": "Constellation 1 1368",
        "Satellite Number": 1368,
        "Semi-Major Axis(m)": 7083131.272910544,
        "Time(s)": 140
    },
    {
        "Altitude(m)": 706818.2135549561,
        "Argument of Periapsis(deg)": 0.008452668880602192,
        "Eccentricity": 0.0,
        "Inclination(deg)": 45.0,
        "Latitude(deg)": 42.97649642379847,
        "Longitude(deg)": -82.63327299047981,
        "Mean Anomaly(deg)": -285.98663922476425,
        "RAAN(deg)": 309.9920209276547,
        "Satellite Name": "Constellation 1 1368",
        "Satellite Number": 1368,
        "Semi-Major Axis(m)": 7083131.272910544,
        "Time(s)": 141
    },
    {
        "Altitude(m)": 706821.8093566489,
        "Argument of Periapsis(deg)": 0.008512616886847598,
        "Eccentricity": 0.0,
        "Inclination(deg)": 45.0,
        "Latitude(deg)": 42.992633378242786,
        "Longitude(deg)": -82.55753683262779,
        "Mean Anomaly(deg)": -285.92593808451437,
        "RAAN(deg)": 309.9919643384891,
        "Satellite Name": "Constellation 1 1368",
        "Satellite Number": 1368,
        "Semi-Major Axis(m)": 7083131.272910544,
        "Time(s)": 142
    },
    {
        "Altitude(m)": 706825.3933794714,
        "Argument of Periapsis(deg)": 0.008572564893093004,
        "Eccentricity": 0.0,
        "Inclination(deg)": 45.0,
        "Latitude(deg)": 43.00871458142283,
        "Longitude(deg)": -82.48175898695779,
        "Mean Anomaly(deg)": -285.86523694426444,
        "RAAN(deg)": 309.99190774932356,
        "Satellite Name": "Constellation 1 1368",
        "Satellite Number": 1368,
        "Semi-Major Axis(m)": 7083131.272910544,
        "Time(s)": 143
    },
    {
        "Altitude(m)": 706828.9656022136,
        "Argument of Periapsis(deg)": 0.008632512899338408,
        "Eccentricity": 0.0,
        "Inclination(deg)": 45.0,
        "Latitude(deg)": 43.02473997348552,
        "Longitude(deg)": -82.40593955268602,
        "Mean Anomaly(deg)": -285.80453580401456,
        "RAAN(deg)": 309.991851160158,
        "Satellite Name": "Constellation 1 1368",
        "Satellite Number": 1368,
        "Semi-Major Axis(m)": 7083131.272910544,
        "Time(s)": 144
    },
    {
        "Altitude(m)": 706832.5260037457,
        "Argument of Periapsis(deg)": 0.008692460905583814,
        "Eccentricity": 0.0,
        "Inclination(deg)": 45.0,
        "Latitude(deg)": 43.04070949470622,
        "Longitude(deg)": -82.33007862959326,
        "Mean Anomaly(deg)": -285.74383466376463,
        "RAAN(deg)": 309.99179457099245,
        "Satellite Name": "Constellation 1 1368",
        "Satellite Number": 1368,
        "Semi-Major Axis(m)": 7083131.272910544,
        "Time(s)": 145
    },
    {
        "Altitude(m)": 706836.074563,
        "Argument of Periapsis(deg)": 0.00875240891182922,
        "Eccentricity": 0.0,
        "Inclination(deg)": 45.0,
        "Latitude(deg)": 43.05662308548954,
        "Longitude(deg)": -82.25417631802522,
        "Mean Anomaly(deg)": -285.6831335235147,
        "RAAN(deg)": 309.9917379818269,
        "Satellite Name": "Constellation 1 1368",
        "Satellite Number": 1368,
        "Semi-Major Axis(m)": 7083131.272910544,
        "Time(s)": 146
    },
    {
        "Altitude(m)": 706839.6112589908,
        "Argument of Periapsis(deg)": 0.008812356918074627,
        "Eccentricity": 0.0,
        "Inclination(deg)": 45.0,
        "Latitude(deg)": 43.072480686370206,
        "Longitude(deg)": -82.17823271889257,
        "Mean Anomaly(deg)": -285.6224323832648,
        "RAAN(deg)": 309.99168139266123,
        "Satellite Name": "Constellation 1 1368",
        "Satellite Number": 1368,
        "Semi-Major Axis(m)": 7083131.272910544,
        "Time(s)": 147
    },
    {
        "Altitude(m)": 706843.136070795,
        "Argument of Periapsis(deg)": 0.008872304924320031,
        "Eccentricity": 0.0,
        "Inclination(deg)": 45.0,
        "Latitude(deg)": 43.08828223801412,
        "Longitude(deg)": -82.10224810176665,
        "Mean Anomaly(deg)": -285.56173124301495,
        "RAAN(deg)": 309.9916248034957,
        "Satellite Name": "Constellation 1 1368",
        "Satellite Number": 1368,
        "Semi-Major Axis(m)": 7083131.272910544,
        "Time(s)": 148
    },
    {
        "Altitude(m)": 706846.6489775695,
        "Argument of Periapsis(deg)": 0.008932252930565437,
        "Eccentricity": 0.0,
        "Inclination(deg)": 45.0,
        "Latitude(deg)": 43.1040276812192,
        "Longitude(deg)": -82.02622223249307,
        "Mean Anomaly(deg)": -285.501030102765,
        "RAAN(deg)": 309.99156821433013,
        "Satellite Name": "Constellation 1 1368",
        "Satellite Number": 1368,
        "Semi-Major Axis(m)": 7083131.272910544,
        "Time(s)": 149
    },
    {
        "Altitude(m)": 706850.149958546,
        "Argument of Periapsis(deg)": 0.008992200936810843,
        "Eccentricity": 0.0,
        "Inclination(deg)": 45.0,
        "Latitude(deg)": 43.1197169569162,
        "Longitude(deg)": -81.95015538177185,
        "Mean Anomaly(deg)": -285.4403289625151,
        "RAAN(deg)": 309.9915116251646,
        "Satellite Name": "Constellation 1 1368",
        "Satellite Number": 1368,
        "Semi-Major Axis(m)": 7083131.272910544,
        "Time(s)": 150
    },
    {
        "Altitude(m)": 706853.6389930188,
        "Argument of Periapsis(deg)": 0.009052148943056249,
        "Eccentricity": 0.0,
        "Inclination(deg)": 45.0,
        "Latitude(deg)": 43.135350006169745,
        "Longitude(deg)": -81.87404765277012,
        "Mean Anomaly(deg)": -285.37962782226526,
        "RAAN(deg)": 309.991455035999,
        "Satellite Name": "Constellation 1 1368",
        "Satellite Number": 1368,
        "Semi-Major Axis(m)": 7083131.272910544,
        "Time(s)": 151
    }
]